[
    {
        "OBJECT_NAME": "ARIANE 5 R/B",
        "OBJECT_ID": "2004-049H",
        "EPOCH": "2026-04-16T11:49:47.447328",
        "MEAN_MOTION": 14.85338196,
        "ECCENTRICITY": 0.0083119,
        "INCLINATION": 98.2679,
        "RA_OF_ASC_NODE": 276.3796,
        "ARG_OF_PERICENTER": 227.9706,
        "MEAN_ANOMALY": 131.4413,
        "EPHEMERIS_TYPE": 0,
        "CLASSIFICATION_TYPE": "U",
        "NORAD_CAT_ID": 28499,
        "ELEMENT_SET_NO": 999,
        "REV_AT_EPOCH": 15140,
        "BSTAR": 6.4631e-05,
        "MEAN_MOTION_DOT": 5.25e-06,
        "MEAN_MOTION_DDOT": 0
    },
    {
        "OBJECT_NAME": "CZ-2D R/B",
        "OBJECT_ID": "2005-024B",
        "EPOCH": "2026-04-16T18:20:07.968768",
        "MEAN_MOTION": 15.63659267,
        "ECCENTRICITY": 0.0003347,
        "INCLINATION": 97.3545,
        "RA_OF_ASC_NODE": 123.404,
        "ARG_OF_PERICENTER": 199.2718,
        "MEAN_ANOMALY": 160.8415,
        "EPHEMERIS_TYPE": 0,
        "CLASSIFICATION_TYPE": "U",
        "NORAD_CAT_ID": 28738,
        "ELEMENT_SET_NO": 999,
        "REV_AT_EPOCH": 14572,
        "BSTAR": 0.00035208,
        "MEAN_MOTION_DOT": 0.00032713,
        "MEAN_MOTION_DDOT": 0
    },
    {
        "OBJECT_NAME": "ALOS (DAICHI)",
        "OBJECT_ID": "2006-002A",
        "EPOCH": "2026-04-16T14:59:10.055616",
        "MEAN_MOTION": 14.69921366,
        "ECCENTRICITY": 0.0001611,
        "INCLINATION": 98.1278,
        "RA_OF_ASC_NODE": 62.4083,
        "ARG_OF_PERICENTER": 112.1914,
        "MEAN_ANOMALY": 247.9462,
        "EPHEMERIS_TYPE": 0,
        "CLASSIFICATION_TYPE": "U",
        "NORAD_CAT_ID": 28931,
        "ELEMENT_SET_NO": 999,
        "REV_AT_EPOCH": 7905,
        "BSTAR": 0.00011739,
        "MEAN_MOTION_DOT": 6.53e-06,
        "MEAN_MOTION_DDOT": 0
    },
    {
        "OBJECT_NAME": "H-2A R/B",
        "OBJECT_ID": "2006-002B",
        "EPOCH": "2026-04-16T16:08:09.495168",
        "MEAN_MOTION": 15.17253083,
        "ECCENTRICITY": 0.0052657,
        "INCLINATION": 98.2484,
        "RA_OF_ASC_NODE": 257.0047,
        "ARG_OF_PERICENTER": 112.2484,
        "MEAN_ANOMALY": 248.4343,
        "EPHEMERIS_TYPE": 0,
        "CLASSIFICATION_TYPE": "U",
        "NORAD_CAT_ID": 28932,
        "ELEMENT_SET_NO": 999,
        "REV_AT_EPOCH": 10019,
        "BSTAR": 0.00026141,
        "MEAN_MOTION_DOT": 5.309e-05,
        "MEAN_MOTION_DDOT": 0
    },
    {
        "OBJECT_NAME": "RESURS-DK 1",
        "OBJECT_ID": "2006-021A",
        "EPOCH": "2026-04-16T19:38:14.182944",
        "MEAN_MOTION": 15.1295273,
        "ECCENTRICITY": 0.0002547,
        "INCLINATION": 69.9296,
        "RA_OF_ASC_NODE": 138.3809,
        "ARG_OF_PERICENTER": 1.1043,
        "MEAN_ANOMALY": 359.0128,
        "EPHEMERIS_TYPE": 0,
        "CLASSIFICATION_TYPE": "U",
        "NORAD_CAT_ID": 29228,
        "ELEMENT_SET_NO": 999,
        "REV_AT_EPOCH": 9329,
        "BSTAR": 7.3071e-05,
        "MEAN_MOTION_DOT": 1.183e-05,
        "MEAN_MOTION_DDOT": 0
    },
    {
        "OBJECT_NAME": "CZ-4B R/B",
        "OBJECT_ID": "2006-046C",
        "EPOCH": "2026-04-16T20:44:43.526688",
        "MEAN_MOTION": 15.17283089,
        "ECCENTRICITY": 0.0034312,
        "INCLINATION": 97.5519,
        "RA_OF_ASC_NODE": 151.6646,
        "ARG_OF_PERICENTER": 133.5179,
        "MEAN_ANOMALY": 226.8915,
        "EPHEMERIS_TYPE": 0,
        "CLASSIFICATION_TYPE": "U",
        "NORAD_CAT_ID": 29507,
        "ELEMENT_SET_NO": 999,
        "REV_AT_EPOCH": 6583,
        "BSTAR": 0.00015276,
        "MEAN_MOTION_DOT": 3.018e-05,
        "MEAN_MOTION_DDOT": 0
    },
    {
        "OBJECT_NAME": "CZ-2C R/B",
        "OBJECT_ID": "2007-010B",
        "EPOCH": "2026-04-16T18:27:23.563008",
        "MEAN_MOTION": 14.20260116,
        "ECCENTRICITY": 0.005903,
        "INCLINATION": 98.4023,
        "RA_OF_ASC_NODE": 218.1469,
        "ARG_OF_PERICENTER": 182.3484,
        "MEAN_ANOMALY": 177.7425,
        "EPHEMERIS_TYPE": 0,
        "CLASSIFICATION_TYPE": "U",
        "NORAD_CAT_ID": 31114,
        "ELEMENT_SET_NO": 999,
        "REV_AT_EPOCH": 98512,
        "BSTAR": 5.2435e-05,
        "MEAN_MOTION_DOT": 7.3e-07,
        "MEAN_MOTION_DDOT": 0
    },
    {
        "OBJECT_NAME": "COSMO-SKYMED 1",
        "OBJECT_ID": "2007-023A",
        "EPOCH": "2026-04-16T20:08:24.713952",
        "MEAN_MOTION": 14.96803796,
        "ECCENTRICITY": 0.0001292,
        "INCLINATION": 97.8877,
        "RA_OF_ASC_NODE": 298.1854,
        "ARG_OF_PERICENTER": 86.1064,
        "MEAN_ANOMALY": 274.0305,
        "EPHEMERIS_TYPE": 0,
        "CLASSIFICATION_TYPE": "U",
        "NORAD_CAT_ID": 31598,
        "ELEMENT_SET_NO": 999,
        "REV_AT_EPOCH": 2061,
        "BSTAR": 0.00010375,
        "MEAN_MOTION_DOT": 1.128e-05,
        "MEAN_MOTION_DDOT": 0
    },
    {
        "OBJECT_NAME": "COSMOS 2428",
        "OBJECT_ID": "2007-029A",
        "EPOCH": "2026-04-16T18:20:09.347712",
        "MEAN_MOTION": 14.12947794,
        "ECCENTRICITY": 0.0009456,
        "INCLINATION": 70.9398,
        "RA_OF_ASC_NODE": 123.4293,
        "ARG_OF_PERICENTER": 236.2586,
        "MEAN_ANOMALY": 123.7634,
        "EPHEMERIS_TYPE": 0,
        "CLASSIFICATION_TYPE": "U",
        "NORAD_CAT_ID": 31792,
        "ELEMENT_SET_NO": 999,
        "REV_AT_EPOCH": 96947,
        "BSTAR": -5.2106e-05,
        "MEAN_MOTION_DOT": -1.45e-06,
        "MEAN_MOTION_DDOT": 0
    },
    {
        "OBJECT_NAME": "SL-16 R/B",
        "OBJECT_ID": "2007-029B",
        "EPOCH": "2026-04-16T16:38:12.238080",
        "MEAN_MOTION": 14.14841304,
        "ECCENTRICITY": 0.0002698,
        "INCLINATION": 70.973,
        "RA_OF_ASC_NODE": 92.4966,
        "ARG_OF_PERICENTER": 271.4805,
        "MEAN_ANOMALY": 261.7754,
        "EPHEMERIS_TYPE": 0,
        "CLASSIFICATION_TYPE": "U",
        "NORAD_CAT_ID": 31793,
        "ELEMENT_SET_NO": 999,
        "REV_AT_EPOCH": 97074,
        "BSTAR": -2.0422e-05,
        "MEAN_MOTION_DOT": -8.7e-07,
        "MEAN_MOTION_DDOT": 0
    },
    {
        "OBJECT_NAME": "KORONAS-FOTON",
        "OBJECT_ID": "2009-003A",
        "EPOCH": "2026-04-16T17:54:14.564160",
        "MEAN_MOTION": 15.44369954,
        "ECCENTRICITY": 0.0010607,
        "INCLINATION": 82.4301,
        "RA_OF_ASC_NODE": 236.278,
        "ARG_OF_PERICENTER": 24.1831,
        "MEAN_ANOMALY": 335.9912,
        "EPHEMERIS_TYPE": 0,
        "CLASSIFICATION_TYPE": "U",
        "NORAD_CAT_ID": 33504,
        "ELEMENT_SET_NO": 999,
        "REV_AT_EPOCH": 95161,
        "BSTAR": 0.00017895,
        "MEAN_MOTION_DOT": 8.311e-05,
        "MEAN_MOTION_DDOT": 0
    },
    {
        "OBJECT_NAME": "CZ-2C R/B",
        "OBJECT_ID": "2011-030B",
        "EPOCH": "2026-04-16T15:55:39.036000",
        "MEAN_MOTION": 14.81340802,
        "ECCENTRICITY": 0.0051303,
        "INCLINATION": 97.8606,
        "RA_OF_ASC_NODE": 63.1869,
        "ARG_OF_PERICENTER": 225.6863,
        "MEAN_ANOMALY": 307.7402,
        "EPHEMERIS_TYPE": 0,
        "CLASSIFICATION_TYPE": "U",
        "NORAD_CAT_ID": 37731,
        "ELEMENT_SET_NO": 999,
        "REV_AT_EPOCH": 79571,
        "BSTAR": 7.3042e-05,
        "MEAN_MOTION_DOT": 5.28e-06,
        "MEAN_MOTION_DDOT": 0
    },
    {
        "OBJECT_NAME": "H-2A R/B",
        "OBJECT_ID": "2012-025E",
        "EPOCH": "2026-04-16T16:05:33.447264",
        "MEAN_MOTION": 14.95409091,
        "ECCENTRICITY": 0.0043998,
        "INCLINATION": 98.4792,
        "RA_OF_ASC_NODE": 76.7811,
        "ARG_OF_PERICENTER": 186.4609,
        "MEAN_ANOMALY": 173.6048,
        "EPHEMERIS_TYPE": 0,
        "CLASSIFICATION_TYPE": "U",
        "NORAD_CAT_ID": 38341,
        "ELEMENT_SET_NO": 999,
        "REV_AT_EPOCH": 75389,
        "BSTAR": 0.00016545,
        "MEAN_MOTION_DOT": 1.793e-05,
        "MEAN_MOTION_DDOT": 0
    }
]